{
  "links" : {
    "next" : "https://api.nasa.gov/neo/rest/v1/feed?start_date=2011-01-09&end_date=2011-01-09&detailed=true&api_key=t0TVs3DtDT2H8Oy2Zy8m2eVrNsAVKAexjcZXUckd",
    "prev" : "https://api.nasa.gov/neo/rest/v1/feed?start_date=2011-01-07&end_date=2011-01-07&detailed=true&api_key=t0TVs3DtDT2H8Oy2Zy8m2eVrNsAVKAexjcZXUckd",
    "self" : "https://api.nasa.gov/neo/rest/v1/feed?start_date=2011-01-08&end_date=2011-01-08&detailed=true&api_key=t0TVs3DtDT2H8Oy2Zy8m2eVrNsAVKAexjcZXUckd"
  },
  "element_count" : 8,
  "near_earth_objects" : {
    "2011-01-08" : [ {
      "links" : {
        "self" : "https://api.nasa.gov/neo/rest/v1/neo/3739155?api_key=t0TVs3DtDT2H8Oy2Zy8m2eVrNsAVKAexjcZXUckd"
      },
      "neo_reference_id" : "3739155",
      "name" : "(2016 AE2)",
      "nasa_jpl_url" : "http://ssd.jpl.nasa.gov/sbdb.cgi?sstr=3739155",
      "absolute_magnitude_h" : 26.4,
      "estimated_diameter" : {
        "kilometers" : {
          "estimated_diameter_min" : 0.0139493823,
          "estimated_diameter_max" : 0.0311917671
        },
        "meters" : {
          "estimated_diameter_min" : 13.9493822934,
          "estimated_diameter_max" : 31.1917670523
        },
        "miles" : {
          "estimated_diameter_min" : 0.0086677416,
          "estimated_diameter_max" : 0.0193816595
        },
        "feet" : {
          "estimated_diameter_min" : 45.7656914036,
          "estimated_diameter_max" : 102.3351970157
        }
      },
      "is_potentially_hazardous_asteroid" : false,
      "close_approach_data" : [ {
        "close_approach_date" : "2011-01-08",
        "epoch_date_close_approach" : 1294473600000,
        "relative_velocity" : {
          "kilometers_per_second" : "16.2703539625",
          "kilometers_per_hour" : "58573.274265041",
          "miles_per_hour" : "36395.1547787418"
        },
        "miss_distance" : {
          "astronomical" : "0.2794882905",
          "lunar" : "108.7209472656",
          "kilometers" : "41810856",
          "miles" : "25980060"
        },
        "orbiting_body" : "Earth"
      } ],
      "orbital_data" : {
        "orbit_id" : "4",
        "orbit_determination_date" : "2017-07-04 06:19:06",
        "orbit_uncertainty" : "8",
        "minimum_orbit_intersection" : ".00824096",
        "jupiter_tisserand_invariant" : "7.215",
        "epoch_osculation" : "2457389.5",
        "eccentricity" : ".2987865236008573",
        "semi_major_axis" : ".8048710969882795",
        "inclination" : ".7158741266741214",
        "ascending_node_longitude" : "330.187975294143",
        "orbital_period" : "263.7472408531266",
        "perihelion_distance" : ".564386459972343",
        "perihelion_argument" : "286.4995865142687",
        "aphelion_distance" : "1.045355734004216",
        "perihelion_time" : "2457492.030639332815",
        "mean_anomaly" : "220.0515021866404",
        "mean_motion" : "1.364943188924103",
        "equinox" : "J2000"
      }
    }, {
      "links" : {
        "self" : "https://api.nasa.gov/neo/rest/v1/neo/3753595?api_key=t0TVs3DtDT2H8Oy2Zy8m2eVrNsAVKAexjcZXUckd"
      },
      "neo_reference_id" : "3753595",
      "name" : "(2016 KO)",
      "nasa_jpl_url" : "http://ssd.jpl.nasa.gov/sbdb.cgi?sstr=3753595",
      "absolute_magnitude_h" : 26.5,
      "estimated_diameter" : {
        "kilometers" : {
          "estimated_diameter_min" : 0.0133215567,
          "estimated_diameter_max" : 0.0297879063
        },
        "meters" : {
          "estimated_diameter_min" : 13.3215566698,
          "estimated_diameter_max" : 29.7879062798
        },
        "miles" : {
          "estimated_diameter_min" : 0.008277629,
          "estimated_diameter_max" : 0.0185093411
        },
        "feet" : {
          "estimated_diameter_min" : 43.7058959846,
          "estimated_diameter_max" : 97.7293544391
        }
      },
      "is_potentially_hazardous_asteroid" : false,
      "close_approach_data" : [ {
        "close_approach_date" : "2011-01-08",
        "epoch_date_close_approach" : 1294473600000,
        "relative_velocity" : {
          "kilometers_per_second" : "15.4969908466",
          "kilometers_per_hour" : "55789.1670478381",
          "miles_per_hour" : "34665.2188248081"
        },
        "miss_distance" : {
          "astronomical" : "0.4258655399",
          "lunar" : "165.6616973877",
          "kilometers" : "63708576",
          "miles" : "39586676"
        },
        "orbiting_body" : "Earth"
      } ],
      "orbital_data" : {
        "orbit_id" : "8",
        "orbit_determination_date" : "2017-04-06 08:25:45",
        "orbit_uncertainty" : "7",
        "minimum_orbit_intersection" : ".00328393",
        "jupiter_tisserand_invariant" : "7.115",
        "epoch_osculation" : "2458000.5",
        "eccentricity" : ".3109179551817101",
        "semi_major_axis" : ".8173256712515705",
        "inclination" : "6.504633034710794",
        "ascending_node_longitude" : "246.4456673357182",
        "orbital_period" : "269.8926991221326",
        "perihelion_distance" : ".5632044448285136",
        "perihelion_argument" : "207.6090296111178",
        "aphelion_distance" : "1.071446897674627",
        "perihelion_time" : "2457977.678393572308",
        "mean_anomaly" : "30.44090611080668",
        "mean_motion" : "1.33386342487572",
        "equinox" : "J2000"
      }
    } ]
  }
}